IRIDIUM 150             
1 43257U 18030J   23265.62110318  .00000021  00000+0  37010-6 0  9992
2 43257  86.4024 347.8093 0001992  85.9535 274.1888 14.34217269287034
IRIDIUM 143             
1 43258U 18030K   23265.81138178  .00000604  00000+0  20865-3 0  9992
2 43258  86.4028 347.7824 0001925  94.9285 265.2131 14.34217964286996
IRIDIUM 161             
1 43478U 18047C   23265.73558747  .00000563  00000+0  16133-3 0  9990
2 43478  86.4523 145.7950 0002218  81.7893 278.3559 14.43283016281121
IRIDIUM 152             
1 43479U 18047D   23266.06318524  .00000425  00000+0  14469-3 0  9992
2 43479  86.3996 145.5182 0001826  87.4253 272.7152 14.34217374279439
IRIDIUM 147             
1 43480U 18047E   23265.92997524  .00000018  00000+0 -71534-6 0  9999
2 43480  86.3999 145.5613 0002187  84.4228 275.7217 14.34220393279400
IRIDIUM 110             
1 43481U 18047F   23265.58747554  .00000433  00000+0  14752-3 0  9994
2 43481  86.4001 145.7704 0002300  79.5347 280.6108 14.34220887279348
IRIDIUM 162             
1 43482U 18047G   23265.79859042  .00000578  00000+0  16578-3 0  9992
2 43482  86.4521 145.6725 0002143  82.4905 277.6539 14.43281309281125
IRIDIUM 160             
1 43569U 18061A   23266.09146383  .00000393  00000+0  13316-3 0  9997
2 43569  86.3931 113.9398 0002114  93.3561 266.7877 14.34221008270319
