<?xml version="1.0" encoding="UTF-8"?>
<ndm xmlns:xsi="http://www.w3.org/2001/XMLSchema-instance" xsi:noNamespaceSchemaLocation="https://sanaregistry.org/r/ndmxml_unqualified/ndmxml-2.0.0-master-2.0.xsd">
<omm id="CCSDS_OMM_VERS" version="2.0">
<header><CREATION_DATE/><ORIGINATOR/></header><body><segment><metadata><OBJECT_NAME>IRIDIUM 150</OBJECT_NAME><OBJECT_ID>2018-030J</OBJECT_ID><CENTER_NAME>EARTH</CENTER_NAME><REF_FRAME>TEME</REF_FRAME><TIME_SYSTEM>UTC</TIME_SYSTEM><MEAN_ELEMENT_THEORY>SGP4</MEAN_ELEMENT_THEORY></metadata><data><meanElements><EPOCH>2023-09-22T14:54:23.314752</EPOCH><MEAN_MOTION>14.34217269</MEAN_MOTION><ECCENTRICITY>.0001992</ECCENTRICITY><INCLINATION>86.4024</INCLINATION><RA_OF_ASC_NODE>347.8093</RA_OF_ASC_NODE><ARG_OF_PERICENTER>85.9535</ARG_OF_PERICENTER><MEAN_ANOMALY>274.1888</MEAN_ANOMALY></meanElements><tleParameters><EPHEMERIS_TYPE>0</EPHEMERIS_TYPE><CLASSIFICATION_TYPE>U</CLASSIFICATION_TYPE><NORAD_CAT_ID>43257</NORAD_CAT_ID><ELEMENT_SET_NO>999</ELEMENT_SET_NO><REV_AT_EPOCH>28703</REV_AT_EPOCH><BSTAR>.3701E-6</BSTAR><MEAN_MOTION_DOT>.21E-6</MEAN_MOTION_DOT><MEAN_MOTION_DDOT>0</MEAN_MOTION_DDOT></tleParameters></data></segment></body></omm>
<omm id="CCSDS_OMM_VERS" version="2.0">
<header><CREATION_DATE/><ORIGINATOR/></header><body><segment><metadata><OBJECT_NAME>IRIDIUM 143</OBJECT_NAME><OBJECT_ID>2018-030K</OBJECT_ID><CENTER_NAME>EARTH</CENTER_NAME><REF_FRAME>TEME</REF_FRAME><TIME_SYSTEM>UTC</TIME_SYSTEM><MEAN_ELEMENT_THEORY>SGP4</MEAN_ELEMENT_THEORY></metadata><data><meanElements><EPOCH>2023-09-22T19:28:23.385792</EPOCH><MEAN_MOTION>14.34217964</MEAN_MOTION><ECCENTRICITY>.0001925</ECCENTRICITY><INCLINATION>86.4028</INCLINATION><RA_OF_ASC_NODE>347.7824</RA_OF_ASC_NODE><ARG_OF_PERICENTER>94.9285</ARG_OF_PERICENTER><MEAN_ANOMALY>265.2131</MEAN_ANOMALY></meanElements><tleParameters><EPHEMERIS_TYPE>0</EPHEMERIS_TYPE><CLASSIFICATION_TYPE>U</CLASSIFICATION_TYPE><NORAD_CAT_ID>43258</NORAD_CAT_ID><ELEMENT_SET_NO>999</ELEMENT_SET_NO><REV_AT_EPOCH>28699</REV_AT_EPOCH><BSTAR>.20865E-3</BSTAR><MEAN_MOTION_DOT>.604E-5</MEAN_MOTION_DOT><MEAN_MOTION_DDOT>0</MEAN_MOTION_DDOT></tleParameters></data></segment></body></omm>
<omm id="CCSDS_OMM_VERS" version="2.0">
<header><CREATION_DATE/><ORIGINATOR/></header><body><segment><metadata><OBJECT_NAME>IRIDIUM 161</OBJECT_NAME><OBJECT_ID>2018-047C</OBJECT_ID><CENTER_NAME>EARTH</CENTER_NAME><REF_FRAME>TEME</REF_FRAME><TIME_SYSTEM>UTC</TIME_SYSTEM><MEAN_ELEMENT_THEORY>SGP4</MEAN_ELEMENT_THEORY></metadata><data><meanElements><EPOCH>2023-09-22T17:39:14.757408</EPOCH><MEAN_MOTION>14.43283016</MEAN_MOTION><ECCENTRICITY>.0002218</ECCENTRICITY><INCLINATION>86.4523</INCLINATION><RA_OF_ASC_NODE>145.7950</RA_OF_ASC_NODE><ARG_OF_PERICENTER>81.7893</ARG_OF_PERICENTER><MEAN_ANOMALY>278.3559</MEAN_ANOMALY></meanElements><tleParameters><EPHEMERIS_TYPE>0</EPHEMERIS_TYPE><CLASSIFICATION_TYPE>U</CLASSIFICATION_TYPE><NORAD_CAT_ID>43478</NORAD_CAT_ID><ELEMENT_SET_NO>999</ELEMENT_SET_NO><REV_AT_EPOCH>28112</REV_AT_EPOCH><BSTAR>.16133E-3</BSTAR><MEAN_MOTION_DOT>.563E-5</MEAN_MOTION_DOT><MEAN_MOTION_DDOT>0</MEAN_MOTION_DDOT></tleParameters></data></segment></body></omm>
<omm id="CCSDS_OMM_VERS" version="2.0">
<header><CREATION_DATE/><ORIGINATOR/></header><body><segment><metadata><OBJECT_NAME>IRIDIUM 152</OBJECT_NAME><OBJECT_ID>2018-047D</OBJECT_ID><CENTER_NAME>EARTH</CENTER_NAME><REF_FRAME>TEME</REF_FRAME><TIME_SYSTEM>UTC</TIME_SYSTEM><MEAN_ELEMENT_THEORY>SGP4</MEAN_ELEMENT_THEORY></metadata><data><meanElements><EPOCH>2023-09-23T01:30:59.204736</EPOCH><MEAN_MOTION>14.34217374</MEAN_MOTION><ECCENTRICITY>.0001826</ECCENTRICITY><INCLINATION>86.3996</INCLINATION><RA_OF_ASC_NODE>145.5182</RA_OF_ASC_NODE><ARG_OF_PERICENTER>87.4253</ARG_OF_PERICENTER><MEAN_ANOMALY>272.7152</MEAN_ANOMALY></meanElements><tleParameters><EPHEMERIS_TYPE>0</EPHEMERIS_TYPE><CLASSIFICATION_TYPE>U</CLASSIFICATION_TYPE><NORAD_CAT_ID>43479</NORAD_CAT_ID><ELEMENT_SET_NO>999</ELEMENT_SET_NO><REV_AT_EPOCH>27943</REV_AT_EPOCH><BSTAR>.14469E-3</BSTAR><MEAN_MOTION_DOT>.425E-5</MEAN_MOTION_DOT><MEAN_MOTION_DDOT>0</MEAN_MOTION_DDOT></tleParameters></data></segment></body></omm>
<omm id="CCSDS_OMM_VERS" version="2.0">
<header><CREATION_DATE/><ORIGINATOR/></header><body><segment><metadata><OBJECT_NAME>IRIDIUM 147</OBJECT_NAME><OBJECT_ID>2018-047E</OBJECT_ID><CENTER_NAME>EARTH</CENTER_NAME><REF_FRAME>TEME</REF_FRAME><TIME_SYSTEM>UTC</TIME_SYSTEM><MEAN_ELEMENT_THEORY>SGP4</MEAN_ELEMENT_THEORY></metadata><data><meanElements><EPOCH>2023-09-22T22:19:09.860736</EPOCH><MEAN_MOTION>14.34220393</MEAN_MOTION><ECCENTRICITY>.0002187</ECCENTRICITY><INCLINATION>86.3999</INCLINATION><RA_OF_ASC_NODE>145.5613</RA_OF_ASC_NODE><ARG_OF_PERICENTER>84.4228</ARG_OF_PERICENTER><MEAN_ANOMALY>275.7217</MEAN_ANOMALY></meanElements><tleParameters><EPHEMERIS_TYPE>0</EPHEMERIS_TYPE><CLASSIFICATION_TYPE>U</CLASSIFICATION_TYPE><NORAD_CAT_ID>43480</NORAD_CAT_ID><ELEMENT_SET_NO>999</ELEMENT_SET_NO><REV_AT_EPOCH>27940</REV_AT_EPOCH><BSTAR>-.71534E-6</BSTAR><MEAN_MOTION_DOT>.18E-6</MEAN_MOTION_DOT><MEAN_MOTION_DDOT>0</MEAN_MOTION_DDOT></tleParameters></data></segment></body></omm>
<omm id="CCSDS_OMM_VERS" version="2.0">
<header><CREATION_DATE/><ORIGINATOR/></header><body><segment><metadata><OBJECT_NAME>IRIDIUM 110</OBJECT_NAME><OBJECT_ID>2018-047F</OBJECT_ID><CENTER_NAME>EARTH</CENTER_NAME><REF_FRAME>TEME</REF_FRAME><TIME_SYSTEM>UTC</TIME_SYSTEM><MEAN_ELEMENT_THEORY>SGP4</MEAN_ELEMENT_THEORY></metadata><data><meanElements><EPOCH>2023-09-22T14:05:57.886656</EPOCH><MEAN_MOTION>14.34220887</MEAN_MOTION><ECCENTRICITY>.00023</ECCENTRICITY><INCLINATION>86.4001</INCLINATION><RA_OF_ASC_NODE>145.7704</RA_OF_ASC_NODE><ARG_OF_PERICENTER>79.5347</ARG_OF_PERICENTER><MEAN_ANOMALY>280.6108</MEAN_ANOMALY></meanElements><tleParameters><EPHEMERIS_TYPE>0</EPHEMERIS_TYPE><CLASSIFICATION_TYPE>U</CLASSIFICATION_TYPE><NORAD_CAT_ID>43481</NORAD_CAT_ID><ELEMENT_SET_NO>999</ELEMENT_SET_NO><REV_AT_EPOCH>27934</REV_AT_EPOCH><BSTAR>.14752E-3</BSTAR><MEAN_MOTION_DOT>.433E-5</MEAN_MOTION_DOT><MEAN_MOTION_DDOT>0</MEAN_MOTION_DDOT></tleParameters></data></segment></body></omm>
<omm id="CCSDS_OMM_VERS" version="2.0">
<header><CREATION_DATE/><ORIGINATOR/></header><body><segment><metadata><OBJECT_NAME>IRIDIUM 162</OBJECT_NAME><OBJECT_ID>2018-047G</OBJECT_ID><CENTER_NAME>EARTH</CENTER_NAME><REF_FRAME>TEME</REF_FRAME><TIME_SYSTEM>UTC</TIME_SYSTEM><MEAN_ELEMENT_THEORY>SGP4</MEAN_ELEMENT_THEORY></metadata><data><meanElements><EPOCH>2023-09-22T19:09:58.212288</EPOCH><MEAN_MOTION>14.43281309</MEAN_MOTION><ECCENTRICITY>.0002143</ECCENTRICITY><INCLINATION>86.4521</INCLINATION><RA_OF_ASC_NODE>145.6725</RA_OF_ASC_NODE><ARG_OF_PERICENTER>82.4905</ARG_OF_PERICENTER><MEAN_ANOMALY>277.6539</MEAN_ANOMALY></meanElements><tleParameters><EPHEMERIS_TYPE>0</EPHEMERIS_TYPE><CLASSIFICATION_TYPE>U</CLASSIFICATION_TYPE><NORAD_CAT_ID>43482</NORAD_CAT_ID><ELEMENT_SET_NO>999</ELEMENT_SET_NO><REV_AT_EPOCH>28112</REV_AT_EPOCH><BSTAR>.16578E-3</BSTAR><MEAN_MOTION_DOT>.578E-5</MEAN_MOTION_DOT><MEAN_MOTION_DDOT>0</MEAN_MOTION_DDOT></tleParameters></data></segment></body></omm>
<omm id="CCSDS_OMM_VERS" version="2.0">
<header><CREATION_DATE/><ORIGINATOR/></header><body><segment><metadata><OBJECT_NAME>IRIDIUM 160</OBJECT_NAME><OBJECT_ID>2018-061A</OBJECT_ID><CENTER_NAME>EARTH</CENTER_NAME><REF_FRAME>TEME</REF_FRAME><TIME_SYSTEM>UTC</TIME_SYSTEM><MEAN_ELEMENT_THEORY>SGP4</MEAN_ELEMENT_THEORY></metadata><data><meanElements><EPOCH>2023-09-23T02:11:42.474912</EPOCH><MEAN_MOTION>14.34221008</MEAN_MOTION><ECCENTRICITY>.0002114</ECCENTRICITY><INCLINATION>86.3931</INCLINATION><RA_OF_ASC_NODE>113.9398</RA_OF_ASC_NODE><ARG_OF_PERICENTER>93.3561</ARG_OF_PERICENTER><MEAN_ANOMALY>266.7877</MEAN_ANOMALY></meanElements><tleParameters><EPHEMERIS_TYPE>0</EPHEMERIS_TYPE><CLASSIFICATION_TYPE>U</CLASSIFICATION_TYPE><NORAD_CAT_ID>43569</NORAD_CAT_ID><ELEMENT_SET_NO>999</ELEMENT_SET_NO><REV_AT_EPOCH>27031</REV_AT_EPOCH><BSTAR>.13316E-3</BSTAR><MEAN_MOTION_DOT>.393E-5</MEAN_MOTION_DOT><MEAN_MOTION_DDOT>0</MEAN_MOTION_DDOT></tleParameters></data></segment></body></omm>

</ndm>
